PERSEUS-M1              
1 40039U 14033AF  26165.82836625  .00001126  00000+0  10678-3 0  9991
2 40039  97.9643 109.9216 0010484 310.4650  49.5656 14.95625064650288
POLYITAN-1              
1 40042U 14033AJ  26165.63752049  .00017004  00000+0  53209-3 0  9990
2 40042  98.0937 191.6573 0008450 148.4935 211.6813 15.33177301653200
TIGRISAT                
1 40043U 14033AK  26165.69039166  .00002095  00000+0  24542-3 0  9997
2 40043  97.7825 315.7591 0050667  83.2052 277.4924 14.85154280645251
AEROCUBE 6A             
1 40045U 14033AM  26165.35185633  .00005921  00000+0  49753-3 0  9995
2 40045  97.7231 332.3304 0039141  27.6491 332.6801 14.98083113646196
AEROCUBE 6B             
1 40046U 14033AN  26165.69058723  .00005000  00000+0  40548-3 0  9993
2 40046  97.7233 332.4503 0038544  17.9541 342.3033 14.99548980646380
CANX-4                  
1 40055U 14034C   26165.72007418  .00000836  00000+0  11454-3 0  9999
2 40055  98.3125  40.9425 0013334  24.7047 335.4800 14.81260689644165
CANX-5                  
1 40056U 14034D   26165.71853608  .00000841  00000+0  11511-3 0  9999
2 40056  98.3127  40.9844 0013343  24.8566 335.3286 14.81277878634973
UKUBE-1                 
1 40074U 14037F   26165.72213670  .00007558  00000+0  42614-3 0  9992
2 40074  98.4228 168.7350 0002551 134.4601 225.6837 15.13520527648183
BRITE-PL2 (HEWELIUSZ)   
1 40119U 14049B   26165.82912721  .00001407  00000+0  13529-3 0  9999
2 40119  97.9095 277.8109 0015212 115.4686 244.8109 14.94586451641097
AEROCUBE 5C             
1 40965U 15058B   26165.68985843  .00002193  00000+0  20099-3 0  9991
2 40965  64.7679 270.3589 0130646  64.2448 297.2080 14.91443796365287
AEROCUBE 7              
1 40966U 15058C   26165.62645968  .00003091  00000+0  25347-3 0  9996
2 40966  64.7629 252.8366 0120371  62.7058 298.6253 14.95711441365573
FOX-1A (AO-85)          
1 40967U 15058D   26165.66956632  .00002284  00000+0  21146-3 0  9990
2 40967  64.7762 286.8077 0130289  57.5807 303.7830 14.90959259113195
SINOD-D 1               
1 40968U 15058E   26165.60471961  .00003177  00000+0  25974-3 0  9997
2 40968  64.7761 266.9995 0118880  54.1051 307.1029 14.95891927116272
SNAP-3 ALICE            
1 40970U 15058G   26165.28851277  .00113024  00000+0  13736-2 0  9991
2 40970  64.7497 113.9459 0028838  14.5147 345.6819 15.59474399116439
LMRST-SAT               
1 40971U 15058H   26165.75841260  .00002076  00000+0  19481-3 0  9993
2 40971  64.7767 282.8645 0131948  59.5717 301.8355 14.90580564113197
SNAP-3 EDDIE            
1 40972U 15058J   26165.15276583  .00129815  00000+0  15035-2 0  9999
2 40972  64.7423 105.1621 0028488  18.6640 341.5544 15.60680536118557
PROPCUBE 3              
1 40973U 15058K   26165.59917515  .00002698  00000+0  23003-3 0  9999
2 40973  64.7689 260.6215 0123916  60.9361 300.4097 14.94245315114416
BISONSAT                
1 40974U 15058L   26165.39477493  .00011042  00000+0  53594-3 0  9995
2 40974  64.7578 182.6726 0078766  48.4099 312.3740 15.16135124115199
SNAP-3 JIMI             
1 40975U 15058M   26165.52642747  .00004173  00000+0  29166-3 0  9992
2 40975  64.7643 228.1910 0106009  56.4556 304.6631 15.02278476113827
PROPCUBE 1 (FLORA)      
1 40976U 15058N   26165.77826573  .00002194  00000+0  21302-3 0  9996
2 40976  64.7755 302.7016 0130629  61.8624 299.5615 14.89212553115902
SINOD-D 3               
1 40977U 15058P   26165.63044189  .00003029  00000+0  26093-3 0  9997
2 40977  64.7736 283.8025 0119121  59.1442 302.1325 14.94002227114373
HORYU-4                 
1 41340U 16012D   26165.49642719  .00399139  56274-4  10359-2 0  9996
2 41340  30.9847  98.7619 0004716 253.7574 106.2569 15.93820636570381
RAVAN                   
1 41849U 16067B   26165.66205139  .00045337  00000+0  68798-3 0  9990
2 41849  97.9894  54.9433 0004735  39.7425 320.4173 15.54466784527308
CELTEE 1                
1 41850U 16067C   26165.57330206  .00005297  00000+0  25200-3 0  9998
2 41850  98.0676  31.9624 0000787 121.6639 238.4671 15.19660318525486
OPTICUBE 04             
1 41851U 16067D   26165.82560900  .00001790  00000+0  11535-3 0  9993
2 41851  98.0697  17.9863 0016817 122.9159 237.3689 15.09649861524813
AEROCUBE 8D             
1 41852U 16067E   26165.59555325  .00007128  00000+0  29430-3 0  9997
2 41852  98.0686  35.5701 0004545 129.5805 230.5832 15.24366214525670
AEROCUBE 8C             
1 41853U 16067F   26165.62096442  .00007024  00000+0  28786-3 0  9990
2 41853  98.0558  32.8286 0006702  76.0747 284.1233 15.24615189525673
CORVUS BC2              
1 42846U 17042X   26165.40478404  .00003937  00000+0  27160-3 0  9999
2 42846  97.4051 326.8627 0014186 119.3255 240.9392 15.06278341486646
CORVUS BC1              
1 42847U 17042Y   26165.53255685  .00003793  00000+0  26070-3 0  9997
2 42847  97.4088 327.7978 0013201  97.3564 262.9164 15.06449976486691
MAKERSAT 0              
1 43016U 17073D   26165.63270566  .00017623  00000+0  48038-3 0  9991
2 43016  97.4633  48.1322 0105208 282.2436  76.7040 15.32025489466077
