OBJECT_NAME,OBJECT_ID,EPOCH,MEAN_MOTION,ECCENTRICITY,INCLINATION,RA_OF_ASC_NODE,ARG_OF_PERICENTER,MEAN_ANOMALY,EPHEMERIS_TYPE,CLASSIFICATION_TYPE,NORAD_CAT_ID,ELEMENT_SET_NO,REV_AT_EPOCH,BSTAR,MEAN_MOTION_DOT,MEAN_MOTION_DDOT
PERSEUS-M1,2014-033AF,2026-06-14T19:52:50.844000,14.95625064,.0010484,97.9643,109.9216,310.4650,49.5656,0,U,40039,999,65028,.10678E-3,.1126E-4,0
POLYITAN-1,2014-033AJ,2026-06-14T15:18:01.770336,15.33177301,.000845,98.0937,191.6573,148.4935,211.6813,0,U,40042,999,65320,.53209E-3,.17004E-3,0
TIGRISAT,2014-033AK,2026-06-14T16:34:09.839424,14.85154280,.0050667,97.7825,315.7591,83.2052,277.4924,0,U,40043,999,64525,.24542E-3,.2095E-4,0
AEROCUBE 6A,2014-033AM,2026-06-14T08:26:40.386912,14.98083113,.00391415,97.7231,332.3304,27.6491,332.6801,0,U,40045,999,64619,.49752878E-3,.5921E-4,0
AEROCUBE 6B,2014-033AN,2026-06-14T16:34:26.736672,14.99548980,.0038544,97.7233,332.4503,17.9541,342.3033,0,U,40046,999,64638,.40548E-3,.5E-4,0
CANX-4,2014-034C,2026-06-14T17:16:54.409152,14.81260689,.0013334,98.3125,40.9425,24.7047,335.4800,0,U,40055,999,64416,.11454E-3,.836E-5,0
CANX-5,2014-034D,2026-06-14T17:14:41.517312,14.81277878,.0013343,98.3127,40.9844,24.8566,335.3286,0,U,40056,999,63497,.11511E-3,.841E-5,0
UKUBE-1,2014-037F,2026-06-14T17:19:52.610880,15.13520527,.0002551,98.4228,168.7350,134.4601,225.6837,0,U,40074,999,64818,.42614E-3,.7558E-4,0
BRITE-PL2 (HEWELIUSZ),2014-049B,2026-06-14T19:53:56.590944,14.94586451,.0015212,97.9095,277.8109,115.4686,244.8109,0,U,40119,999,64109,.13529E-3,.1407E-4,0
AEROCUBE 5C,2015-058B,2026-06-14T16:33:23.768352,14.91443796,.0130646,64.7679,270.3589,64.2448,297.2080,0,U,40965,999,36528,.20099E-3,.2193E-4,0
AEROCUBE 7,2015-058C,2026-06-14T15:02:06.116352,14.95711441,.0120371,64.7629,252.8366,62.7058,298.6253,0,U,40966,999,36557,.25347E-3,.3091E-4,0
FOX-1A (AO-85),2015-058D,2026-06-14T16:04:10.530048,14.90959259,.0130289,64.7762,286.8077,57.5807,303.7830,0,U,40967,999,11319,.21146E-3,.2284E-4,0
SINOD-D 1,2015-058E,2026-06-14T14:30:47.774304,14.95891927,.011888,64.7761,266.9995,54.1051,307.1029,0,U,40968,999,11627,.25974E-3,.3177E-4,0
SNAP-3 ALICE,2015-058G,2026-06-14T06:55:27.503328,15.59474399,.0028838,64.7497,113.9459,14.5147,345.6819,0,U,40970,999,11643,.13736E-2,.113024E-2,0
LMRST-SAT,2015-058H,2026-06-14T18:12:06.848640,14.90580564,.0131948,64.7767,282.8645,59.5717,301.8355,0,U,40971,999,11319,.19481E-3,.2076E-4,0
SNAP-3 EDDIE,2015-058J,2026-06-14T03:39:58.967712,15.60680536,.0028488,64.7423,105.1621,18.6640,341.5544,0,U,40972,999,11855,.15035182E-2,.129815E-2,0
PROPCUBE 3,2015-058K,2026-06-14T14:22:48.732960,14.94245315,.0123916,64.7689,260.6215,60.9361,300.4097,0,U,40973,999,11441,.23003E-3,.2698E-4,0
BISONSAT,2015-058L,2026-06-14T09:28:28.553952,15.16135124,.0078766,64.7578,182.6726,48.4099,312.3740,0,U,40974,999,11519,.53594298E-3,.11042E-3,0
SNAP-3 JIMI,2015-058M,2026-06-14T12:38:03.333408,15.02278476,.0106009,64.7643,228.1910,56.4556,304.6631,0,U,40975,999,11382,.29166E-3,.4173E-4,0
PROPCUBE 1 (FLORA),2015-058N,2026-06-14T18:40:42.159072,14.89212553,.0130629,64.7755,302.7016,61.8624,299.5615,0,U,40976,999,11590,.21302E-3,.2194E-4,0
SINOD-D 3,2015-058P,2026-06-14T15:07:50.179296,14.94002227,.0119121,64.7736,283.8025,59.1442,302.1325,0,U,40977,999,11437,.26093E-3,.3029E-4,0
HORYU-4,2016-012D,2026-06-14T11:54:51.309216,15.93820636,.00047162,30.9847,98.7619,253.7574,106.2569,0,U,41340,999,57038,.10359447E-2,.399139E-2,.5627425E-4
RAVAN,2016-067B,2026-06-14T15:53:21.240096,15.54466784,.0004735,97.9894,54.9433,39.7425,320.4173,0,U,41849,999,52730,.68798E-3,.45337E-3,0
CELTEE 1,2016-067C,2026-06-14T13:45:33.297984,15.19660318,.0000787,98.0676,31.9624,121.6639,238.4671,0,U,41850,999,52548,.252E-3,.5297E-4,0
OPTICUBE 04,2016-067D,2026-06-14T19:48:52.617600,15.09649861,.0016817,98.0697,17.9863,122.9159,237.3689,0,U,41851,999,52481,.11535E-3,.179E-4,0
AEROCUBE 8D,2016-067E,2026-06-14T14:17:35.800800,15.24366214,.0004545,98.0686,35.5701,129.5805,230.5832,0,U,41852,999,52567,.2943E-3,.7128E-4,0
AEROCUBE 8C,2016-067F,2026-06-14T14:54:11.325888,15.24615189,.0006702,98.0558,32.8286,76.0747,284.1233,0,U,41853,999,52567,.28786E-3,.7024E-4,0
CORVUS BC2,2017-042X,2026-06-14T09:42:53.341056,15.06278341,.00141862,97.4051,326.8627,119.3255,240.9392,0,U,42846,999,48664,.27160184E-3,.3937E-4,0
CORVUS BC1,2017-042Y,2026-06-14T12:46:52.911840,15.06449976,.0013201,97.4088,327.7978,97.3564,262.9164,0,U,42847,999,48669,.2607E-3,.3793E-4,0
MAKERSAT 0,2017-073D,2026-06-14T15:11:05.769024,15.32025489,.0105208,97.4633,48.1322,282.2436,76.7040,0,U,43016,999,46607,.48038E-3,.17623E-3,0
